[{"OBJECT_NAME":"STARLINK-34749","OBJECT_ID":"2025-211Z","EPOCH":"2026-03-09T16:00:18.794016","MEAN_MOTION":15.05648009,"ECCENTRICITY":9.926e-5,"INCLINATION":97.6041,"RA_OF_ASC_NODE":114.1235,"ARG_OF_PERICENTER":160.2549,"MEAN_ANOMALY":199.8716,"EPHEMERIS_TYPE":0,"CLASSIFICATION_TYPE":"U","NORAD_CAT_ID":65675,"ELEMENT_SET_NO":999,"REV_AT_EPOCH":2704,"BSTAR":9.1968073e-5,"MEAN_MOTION_DOT":1.266e-5,"MEAN_MOTION_DDOT":0},{"OBJECT_NAME":"FENGYUN 1C DEB","OBJECT_ID":"1999-025APS","EPOCH":"2026-03-09T05:28:18.008544","MEAN_MOTION":14.8929811,"ECCENTRICITY":0.0134191,"INCLINATION":98.1333,"RA_OF_ASC_NODE":172.0122,"ARG_OF_PERICENTER":51.8819,"MEAN_ANOMALY":339.1928,"EPHEMERIS_TYPE":0,"CLASSIFICATION_TYPE":"U","NORAD_CAT_ID":30660,"ELEMENT_SET_NO":999,"REV_AT_EPOCH":2071,"BSTAR":0.00072395937,"MEAN_MOTION_DOT":8.066e-5,"MEAN_MOTION_DDOT":0}]
